ONEWEB-0228             
1 48780U 21045P   23242.54767394  .00000049  00000+0  94894-4 0  9997
2 48780  87.8963 102.6236 0001783  87.6040 272.5294 13.15547282111130
